1 29155U 06018A   11300.26856976 -.00000259  00000-0  10000-3 0  7945
2 29155 000.1919 079.2327 0000794 026.7567 311.2769 01.00276539 19908